IRIDIUM 33              
1 24946U 97051C   26094.24533119  .00000434  00000+0  14533-3 0  9995
2 24946  86.3921  20.9795 0006999 192.6569 167.4452 14.35117639494487
IRIDIUM 33 DEB          
1 33773U 97051L   26094.22969362  .00001527  00000+0  44493-3 0  9996
2 33773  86.4063  12.9084 0012407 132.5764 227.6487 14.43541265899702
IRIDIUM 33 DEB          
1 33775U 97051N   26094.24175267  .00002718  00000+0  82477-3 0  9990
2 33775  86.3687   1.5198 0013759 142.1449  16.2481 14.41845378897617
IRIDIUM 33 DEB          
1 33776U 97051P   26094.31544348  .00001256  00000+0  40492-3 0  9996
2 33776  86.4069  33.4643 0014005 179.4472 334.4072 14.38453716897007
IRIDIUM 33 DEB          
1 33777U 97051Q   26094.19395189  .00004443  00000+0  99524-3 0  9991
2 33777  86.3820 346.2686 0004892 228.4656 131.6133 14.56472148901704
IRIDIUM 33 DEB          
1 33850U 97051T   26094.19039227  .00002100  00000+0  62692-3 0  9995
2 33850  86.3446 341.8369 0011871 149.6982   9.9604 14.42549109897734
IRIDIUM 33 DEB          
1 33853U 97051W   26094.05971149  .00002852  00000+0  16147-2 0  9998
2 33853  85.9961 300.5493 0206310 251.9823 264.6470 13.99686330869165
IRIDIUM 33 DEB          
1 33860U 97051AD  26094.17824275  .00011801  00000+0  19863-2 0  9998
2 33860  86.3845 337.4043 0007786 330.3589 151.7055 14.69469395903720
IRIDIUM 33 DEB          
1 33862U 97051AF  26094.18720216  .00020544  00000+0  31585-2 0  9990
2 33862  86.4117 347.8446 0051664  39.5992 113.3404 14.72512141904766
IRIDIUM 33 DEB          
1 33866U 97051AK  26094.31319867  .00005366  00000+0  21025-2 0  9998
2 33866  86.3017  45.3654 0112032 158.3124 354.1836 14.25899354884148
IRIDIUM 33 DEB          
1 33870U 97051AP  26094.27458609  .00004450  00000+0  12269-2 0  9999
2 33870  86.3800   9.9991 0020735 162.5229 320.2998 14.46549207897637
IRIDIUM 33 DEB          
1 33881U 97051BA  26093.91869045  .00034092  00000+0  69364-2 0  9994
2 33881  86.3852  57.8391 0054698 150.2465 264.2046 14.59943305891358
IRIDIUM 33 DEB          
1 33884U 97051BD  26094.10690622  .00029766  00000+0  38124-2 0  9994
2 33884  86.3680 318.9728 0009274 287.4492 226.0711 14.81144398905089
IRIDIUM 33 DEB          
1 33886U 97051BF  26094.27553246  .00000787  00000+0  26321-3 0  9993
2 33886  86.3880  19.8440 0012062 234.1872 240.8088 14.36202170896679
IRIDIUM 33 DEB          
1 33887U 97051BG  26094.13029965  .00000600  00000+0  19438-3 0  9990
2 33887  86.3029 314.9862 0004616 218.0378 272.0006 14.37346264897795
IRIDIUM 33 DEB          
1 33953U 97051BN  26094.23256877  .00008693  00000+0  19377-2 0  9990
2 33953  86.3902   4.9120 0018944  78.7125  83.1376 14.56676714899400
