[{"OBJECT_NAME":"IRIDIUM 33","OBJECT_ID":"1997-051C","EPOCH":"2026-04-04T05:53:16.614816","MEAN_MOTION":14.35117639,"ECCENTRICITY":0.00069999,"INCLINATION":86.3921,"RA_OF_ASC_NODE":20.9795,"ARG_OF_PERICENTER":192.6569,"MEAN_ANOMALY":167.4452,"EPHEMERIS_TYPE":0,"CLASSIFICATION_TYPE":"U","NORAD_CAT_ID":24946,"ELEMENT_SET_NO":999,"REV_AT_EPOCH":49448,"BSTAR":0.00014532805,"MEAN_MOTION_DOT":4.34e-6,"MEAN_MOTION_DDOT":0},{"OBJECT_NAME":"IRIDIUM 33 DEB","OBJECT_ID":"1997-051L","EPOCH":"2026-04-04T05:30:45.528768","MEAN_MOTION":14.43541265,"ECCENTRICITY":0.0012407,"INCLINATION":86.4063,"RA_OF_ASC_NODE":12.9084,"ARG_OF_PERICENTER":132.5764,"MEAN_ANOMALY":227.6487,"EPHEMERIS_TYPE":0,"CLASSIFICATION_TYPE":"U","NORAD_CAT_ID":33773,"ELEMENT_SET_NO":999,"REV_AT_EPOCH":89970,"BSTAR":0.00044493411,"MEAN_MOTION_DOT":1.527e-5,"MEAN_MOTION_DDOT":0},{"OBJECT_NAME":"IRIDIUM 33 DEB","OBJECT_ID":"1997-051N","EPOCH":"2026-04-04T05:48:07.430688","MEAN_MOTION":14.41845378,"ECCENTRICITY":0.00137594,"INCLINATION":86.3687,"RA_OF_ASC_NODE":1.5198,"ARG_OF_PERICENTER":142.1449,"MEAN_ANOMALY":16.2481,"EPHEMERIS_TYPE":0,"CLASSIFICATION_TYPE":"U","NORAD_CAT_ID":33775,"ELEMENT_SET_NO":999,"REV_AT_EPOCH":89761,"BSTAR":0.00082477052,"MEAN_MOTION_DOT":2.718e-5,"MEAN_MOTION_DDOT":0},{"OBJECT_NAME":"IRIDIUM 33 DEB","OBJECT_ID":"1997-051P","EPOCH":"2026-04-04T07:34:14.316672","MEAN_MOTION":14.38453716,"ECCENTRICITY":0.00140057,"INCLINATION":86.4069,"RA_OF_ASC_NODE":33.4643,"ARG_OF_PERICENTER":179.4472,"MEAN_ANOMALY":334.4072,"EPHEMERIS_TYPE":0,"CLASSIFICATION_TYPE":"U","NORAD_CAT_ID":33776,"ELEMENT_SET_NO":999,"REV_AT_EPOCH":89700,"BSTAR":0.00040491673,"MEAN_MOTION_DOT":1.256e-5,"MEAN_MOTION_DDOT":0},{"OBJECT_NAME":"IRIDIUM 33 DEB","OBJECT_ID":"1997-051Q","EPOCH":"2026-04-04T04:39:17.443296","MEAN_MOTION":14.56472148,"ECCENTRICITY":0.0004892,"INCLINATION":86.382,"RA_OF_ASC_NODE":346.2686,"ARG_OF_PERICENTER":228.4656,"MEAN_ANOMALY":131.6133,"EPHEMERIS_TYPE":0,"CLASSIFICATION_TYPE":"U","NORAD_CAT_ID":33777,"ELEMENT_SET_NO":999,"REV_AT_EPOCH":90170,"BSTAR":0.00099524069,"MEAN_MOTION_DOT":4.443e-5,"MEAN_MOTION_DDOT":0},{"OBJECT_NAME":"IRIDIUM 33 DEB","OBJECT_ID":"1997-051T","EPOCH":"2026-04-04T04:34:09.892128","MEAN_MOTION":14.42549109,"ECCENTRICITY":0.00118712,"INCLINATION":86.3446,"RA_OF_ASC_NODE":341.8369,"ARG_OF_PERICENTER":149.6982,"MEAN_ANOMALY":9.9604,"EPHEMERIS_TYPE":0,"CLASSIFICATION_TYPE":"U","NORAD_CAT_ID":33850,"ELEMENT_SET_NO":999,"REV_AT_EPOCH":89773,"BSTAR":0.00062692289,"MEAN_MOTION_DOT":2.1e-5,"MEAN_MOTION_DDOT":0},{"OBJECT_NAME":"IRIDIUM 33 DEB","OBJECT_ID":"1997-051W","EPOCH":"2026-04-04T01:25:59.072736","MEAN_MOTION":13.9968633,"ECCENTRICITY":0.020631,"INCLINATION":85.9961,"RA_OF_ASC_NODE":300.5493,"ARG_OF_PERICENTER":251.9823,"MEAN_ANOMALY":264.647,"EPHEMERIS_TYPE":0,"CLASSIFICATION_TYPE":"U","NORAD_CAT_ID":33853,"ELEMENT_SET_NO":999,"REV_AT_EPOCH":86916,"BSTAR":0.0016147042,"MEAN_MOTION_DOT":2.852e-5,"MEAN_MOTION_DDOT":0},{"OBJECT_NAME":"IRIDIUM 33 DEB","OBJECT_ID":"1997-051AD","EPOCH":"2026-04-04T04:16:40.173600","MEAN_MOTION":14.69469395,"ECCENTRICITY":0.0007786,"INCLINATION":86.3845,"RA_OF_ASC_NODE":337.4043,"ARG_OF_PERICENTER":330.3589,"MEAN_ANOMALY":151.7055,"EPHEMERIS_TYPE":0,"CLASSIFICATION_TYPE":"U","NORAD_CAT_ID":33860,"ELEMENT_SET_NO":999,"REV_AT_EPOCH":90372,"BSTAR":0.0019862903,"MEAN_MOTION_DOT":0.00011801,"MEAN_MOTION_DDOT":0},{"OBJECT_NAME":"IRIDIUM 33 DEB","OBJECT_ID":"1997-051AF","EPOCH":"2026-04-04T04:29:34.266624","MEAN_MOTION":14.72512141,"ECCENTRICITY":0.00516643,"INCLINATION":86.4117,"RA_OF_ASC_NODE":347.8446,"ARG_OF_PERICENTER":39.5992,"MEAN_ANOMALY":113.3404,"EPHEMERIS_TYPE":0,"CLASSIFICATION_TYPE":"U","NORAD_CAT_ID":33862,"ELEMENT_SET_NO":999,"REV_AT_EPOCH":90476,"BSTAR":0.0031585484,"MEAN_MOTION_DOT":0.00020544,"MEAN_MOTION_DDOT":0},{"OBJECT_NAME":"IRIDIUM 33 DEB","OBJECT_ID":"1997-051AK","EPOCH":"2026-04-04T07:31:00.365088","MEAN_MOTION":14.25899354,"ECCENTRICITY":0.01120322,"INCLINATION":86.3017,"RA_OF_ASC_NODE":45.3654,"ARG_OF_PERICENTER":158.3124,"MEAN_ANOMALY":354.1836,"EPHEMERIS_TYPE":0,"CLASSIFICATION_TYPE":"U","NORAD_CAT_ID":33866,"ELEMENT_SET_NO":999,"REV_AT_EPOCH":88414,"BSTAR":0.0021024587,"MEAN_MOTION_DOT":5.366e-5,"MEAN_MOTION_DDOT":0},{"OBJECT_NAME":"IRIDIUM 33 DEB","OBJECT_ID":"1997-051AP","EPOCH":"2026-04-04T06:35:24.238176","MEAN_MOTION":14.46549207,"ECCENTRICITY":0.00207351,"INCLINATION":86.38,"RA_OF_ASC_NODE":9.9991,"ARG_OF_PERICENTER":162.5229,"MEAN_ANOMALY":320.2998,"EPHEMERIS_TYPE":0,"CLASSIFICATION_TYPE":"U","NORAD_CAT_ID":33870,"ELEMENT_SET_NO":999,"REV_AT_EPOCH":89763,"BSTAR":0.0012268765,"MEAN_MOTION_DOT":4.45e-5,"MEAN_MOTION_DDOT":0},{"OBJECT_NAME":"IRIDIUM 33 DEB","OBJECT_ID":"1997-051BA","EPOCH":"2026-04-03T22:02:54.854880","MEAN_MOTION":14.59943305,"ECCENTRICITY":0.00546989,"INCLINATION":86.3852,"RA_OF_ASC_NODE":57.8391,"ARG_OF_PERICENTER":150.2465,"MEAN_ANOMALY":264.2046,"EPHEMERIS_TYPE":0,"CLASSIFICATION_TYPE":"U","NORAD_CAT_ID":33881,"ELEMENT_SET_NO":999,"REV_AT_EPOCH":89135,"BSTAR":0.006936374,"MEAN_MOTION_DOT":0.00034092,"MEAN_MOTION_DDOT":0},{"OBJECT_NAME":"IRIDIUM 33 DEB","OBJECT_ID":"1997-051BD","EPOCH":"2026-04-04T02:33:56.697408","MEAN_MOTION":14.81144398,"ECCENTRICITY":0.00092742,"INCLINATION":86.368,"RA_OF_ASC_NODE":318.9728,"ARG_OF_PERICENTER":287.4492,"MEAN_ANOMALY":226.0711,"EPHEMERIS_TYPE":0,"CLASSIFICATION_TYPE":"U","NORAD_CAT_ID":33884,"ELEMENT_SET_NO":999,"REV_AT_EPOCH":90508,"BSTAR":0.0038123698,"MEAN_MOTION_DOT":0.00029766,"MEAN_MOTION_DDOT":0},{"OBJECT_NAME":"IRIDIUM 33 DEB","OBJECT_ID":"1997-051BF","EPOCH":"2026-04-04T06:36:46.004544","MEAN_MOTION":14.3620217,"ECCENTRICITY":0.00120629,"INCLINATION":86.388,"RA_OF_ASC_NODE":19.844,"ARG_OF_PERICENTER":234.1872,"MEAN_ANOMALY":240.8088,"EPHEMERIS_TYPE":0,"CLASSIFICATION_TYPE":"U","NORAD_CAT_ID":33886,"ELEMENT_SET_NO":999,"REV_AT_EPOCH":89667,"BSTAR":0.00026321272,"MEAN_MOTION_DOT":7.87e-6,"MEAN_MOTION_DDOT":0},{"OBJECT_NAME":"IRIDIUM 33 DEB","OBJECT_ID":"1997-051BG","EPOCH":"2026-04-04T03:07:37.889760","MEAN_MOTION":14.37346264,"ECCENTRICITY":0.00046165,"INCLINATION":86.3029,"RA_OF_ASC_NODE":314.9862,"ARG_OF_PERICENTER":218.0378,"MEAN_ANOMALY":272.0006,"EPHEMERIS_TYPE":0,"CLASSIFICATION_TYPE":"U","NORAD_CAT_ID":33887,"ELEMENT_SET_NO":999,"REV_AT_EPOCH":89779,"BSTAR":0.00019438428,"MEAN_MOTION_DOT":6.0e-6,"MEAN_MOTION_DDOT":0},{"OBJECT_NAME":"IRIDIUM 33 DEB","OBJECT_ID":"1997-051BN","EPOCH":"2026-04-04T05:34:53.941728","MEAN_MOTION":14.56676714,"ECCENTRICITY":0.00189441,"INCLINATION":86.3902,"RA_OF_ASC_NODE":4.912,"ARG_OF_PERICENTER":78.7125,"MEAN_ANOMALY":83.1376,"EPHEMERIS_TYPE":0,"CLASSIFICATION_TYPE":"U","NORAD_CAT_ID":33953,"ELEMENT_SET_NO":999,"REV_AT_EPOCH":89940,"BSTAR":0.00193768,"MEAN_MOTION_DOT":8.693e-5,"MEAN_MOTION_DDOT":0}]
